satname,norad_id,inclination_deg,eccentricity,mean_motion_rev_per_day,perigee_km,apogee_km,l1,l2
STARLINK-1168,45072,53.0537,0.0001135,15.06421531,546.3595497386732,547.9315888819074,1 45072U 20006AE  25291.14756431  .00014935  00000+0  10188-2 0  9997,2 45072  53.0537 186.5153 0001135  88.9321 271.1798 15.06421531315252
STARLINK-1172,45074,53.0541,0.0001469,15.06411738,546.1582544740331,548.1929113108872,1 45074U 20006AG  25291.09227577  .00005569  00000+0  39236-3 0  9996,2 45074  53.0541 186.7666 0001469  90.2762 269.8396 15.06411738315240
STARLINK-1153,45080,53.0543,0.0001341,15.06434292,546.1777847429858,548.0351350389274,1 45080U 20006AN  25291.00381390  .00017518  00000+0  11909-2 0  9991,2 45080  53.0543 187.1616 0001341  92.3081 267.8061 15.06434292315231
STARLINK-1151,45081,53.0536,0.0001543,15.06424726,546.0672077564795,548.2043469355685,1 45081U 20006AP  25291.12176977  .00012554  00000+0  85962-3 0  9994,2 45081  53.0536 186.7057 0001543 100.1277 259.9886 15.06424726315257
STARLINK-1190,45083,53.0432,0.000578,15.83147337,317.6740546488081,325.4188887420869,1 45083U 20006AR  25291.33336806  .00225157  00000+0  10020-2 0  9995,2 45083  53.0432 144.0297 0005780 149.8714  61.1391 15.83147337  6098
STARLINK-1173,45084,53.0367,0.0002771,16.02451865,265.7895059833245,269.4725906356971,1 45084U 20006AS  25291.21404653  .00522016  13446-3  86692-3 0  9994,2 45084  53.0367 105.8201 0002771 318.2582  41.8236 16.02451865316394
STARLINK-1185,45087,53.054,0.0001326,15.06404807,546.2785259495649,548.1151244800121,1 45087U 20006AV  25290.96510426  .00012444  00000+0  85271-3 0  9993,2 45087  53.0540 167.3325 0001326  92.8261 267.2879 15.06404807315511
STARLINK-1183,45088,53.0542,0.000148,15.06412854,546.1472168036644,548.1971083157832,1 45088U 20006AW  25291.05357709  .00007047  00000+0  49133-3 0  9998,2 45088  53.0542 166.9376 0001480  89.6043 270.5116 15.06412854315521
STARLINK-1176,45090,53.0421,0.0005006,15.98289099,275.8327291611049,282.4980202986844,1 45090U 20006AY  25291.33336806  .00573881  15278-3  12096-2 0  9995,2 45090  53.0421 103.5671 0005006 325.1185 217.2813 15.98289099  6127
STARLINK-1142,45093,53.0341,0.0002604,15.56822269,395.09647647589554,398.6248952706983,1 45093U 20006BB  25291.18992346  .00143154  00000+0  19322-2 0  9996,2 45093  53.0341 104.6138 0002604 204.8228 155.2658 15.56822269316413
STARLINK-1152,45096,53.0507,0.0009635,15.22856728,490.60439928546384,503.85322920951876,1 45096U 20006BE  25291.01104797  .00027583  00000+0  11714-2 0  9990,2 45096  53.0507 150.9447 0009635 123.5029 236.6889 15.22856728315749
STARLINK-1184,45098,53.0535,0.0001472,15.06434817,546.0854553026302,548.1242465035366,1 45098U 20006BG  25291.06830008  .00020009  00000+0  13571-2 0  9997,2 45098  53.0535 166.8717 0001472  76.1290 283.9863 15.06434817315528
STARLINK-1193,45100,53.0538,0.0001348,15.06421879,546.2109748194498,548.078030712596,1 45100U 20006BJ  25291.06463729  .00013913  00000+0  95054-3 0  9996,2 45100  53.0538 166.8870 0001348  83.4999 276.6144 15.06421879315529
STARLINK-1143,45179,53.0537,0.0007287,15.38452364,445.7090435630935,455.66136904656287,1 45179U 20012B   25291.27469274  .00116173  00000+0  29797-2 0  9995,2 45179  53.0537 292.7310 0007287 354.3557   5.7362 15.38452364313844
STARLINK-1202,45183,53.0551,0.0001236,15.06400562,546.3538626208883,548.0658083586222,1 45183U 20012F   25291.25997935 -.00004821  00000+0 -30497-3 0  9996,2 45183  53.0551 326.0119 0001236  85.4663 274.6468 15.06400562313371
STARLINK-1216,45185,53.0548,0.0001545,15.0640682,546.1206925765919,548.2606188222035,1 45185U 20012H   25291.31895964  .00001240  00000+0  10209-3 0  9993,2 45185  53.0548 325.7413 0001545  87.4725 272.6441 15.06406820313323
STARLINK-1225,45187,53.055,9.28e-05,15.06396344,546.5800896883657,547.8654364603926,1 45187U 20012K   25291.27102145 -.00009018  00000+0 -58737-3 0  9993,2 45187  53.0550 325.9624 0000928  92.6700 267.4395 15.06396344313362
STARLINK-1230,45189,53.0552,0.0001397,15.06404793,546.2293989811697,548.1643372639237,1 45189U 20012M   25291.27473690  .00004040  00000+0  28991-3 0  9998,2 45189  53.0552 325.9476 0001397  92.0947 268.0202 15.06404793310593
STARLINK-1234,45190,53.0546,0.0001324,15.24325607,491.90153922519676,493.72096632253124,1 45190U 20012N   25291.33336806  .01097442  00000+0  40964-1 0  9995,2 45190  53.0546 285.1274 0001324  92.7699  52.1826 15.24325607  5896
STARLINK-1269,45197,53.0545,0.0001431,15.06397025,546.2296572163841,548.2116945832267,1 45197U 20012V   25291.28578631 -.00000517  00000+0 -15835-4 0  9990,2 45197  53.0545 325.8986 0001431  86.6768 273.4385 15.06397025313345
STARLINK-1154,45198,53.0557,0.0001686,15.06396185,546.0556346502772,548.3908661267087,1 45198U 20012W   25291.27657130 -.00000647  00000+0 -24553-4 0  9993,2 45198  53.0557 305.9393 0001686  95.8078 264.3103 15.06396185313598
STARLINK-1199,45201,53.0542,0.0001412,15.0639596,546.2460790193581,548.2018009488102,1 45201U 20012Z   25291.28763107  .00000372  00000+0  43903-4 0  9994,2 45201  53.0542 305.8879 0001412  88.2940 271.8210 15.06395960313655
STARLINK-1209,45206,53.0544,0.0001984,15.20658166,502.4887504895514,505.21952457292355,1 45206U 20012AE  25291.33336806  .01767395  00000+0  72514-1 0  9990,2 45206  53.0544 285.3307 0001984  67.9290 312.8786 15.20658166  5890
STARLINK-1210,45207,53.0245,0.0012793,15.5307386,399.07627171611966,416.4386612981252,1 45207U 20012AF  25291.13279907  .00211101  00000+0  32282-2 0  9994,2 45207  53.0245 251.0448 0012793  11.6109 348.5193 15.53073860314417
STARLINK-1231,45212,53.0521,0.0004557,15.11103443,529.6842571532807,535.9829157457707,1 45212U 20012AL  25291.21754849  .00042125  00000+0  24888-2 0  9993,2 45212  53.0521 305.0376 0004557 346.6502  13.4368 15.11103443313615
STARLINK-1271,45217,53.0544,0.0001375,15.06388557,546.2943890581628,548.1988695562222,1 45217U 20012AR  25291.27290337 -.00000372  00000+0 -61077-5 0  9995,2 45217  53.0544 305.9540 0001375  88.4219 271.6928 15.06388557313657
STARLINK-1191,45222,53.0546,0.0001469,15.06392139,546.2183136334443,548.2529881182718,1 45222U 20012AW  25291.21574748  .00000679  00000+0  64479-4 0  9992,2 45222  53.0546 286.2068 0001469  84.3364 275.7792 15.06392139313926
STARLINK-1212,45223,53.0544,0.0001489,15.06401984,546.1742937758345,548.2366607655649,1 45223U 20012AX  25291.23426315  .00001285  00000+0  10517-3 0  9998,2 45223  53.0544 286.7814 0001489  78.6239 281.4917 15.06401984313920
STARLINK-1215,45225,53.0544,0.0001417,15.06393979,546.2486869920303,548.211336003088,1 45225U 20012AZ  25291.25630012  .00000608  00000+0  59721-4 0  9992,2 45225  53.0544 286.0252 0001417  92.5790 267.5362 15.06393979313887
STARLINK-1217,45226,53.0312,0.000461,16.26427356,199.12494698183127,205.19197939889364,1 45226U 20012BA  25291.92302150  .03075942  11976-4  90969-3 0  9999,2 45226  53.0312 214.9348 0004610 228.9816 131.0826 16.26427356314891
STARLINK-1221,45227,53.0671,0.0001645,15.36196702,456.24382808025166,458.4927093136521,1 45227U 20012BB  25291.11516804  .00022498  00000+0  63750-3 0  9998,2 45227  53.0671 222.3039 0001645 299.9028  60.1811 15.36196702314757
STARLINK-1222,45228,53.055,0.0001474,15.06395672,546.2040243340289,548.2456209993506,1 45228U 20012BC  25291.28947852  .00000424  00000+0  47344-4 0  9995,2 45228  53.0550 285.8776 0001474  82.8777 277.2379 15.06395672313827
STARLINK-1226,45229,53.0549,0.0001451,15.06392702,546.2290540262065,548.238796668742,1 45229U 20012BD  25291.25262662  .00001617  00000+0  12748-3 0  9996,2 45229  53.0549 286.0416 0001451  89.8406 270.2749 15.06392702313826
STARLINK-1227,45230,53.0556,0.0001523,15.06394428,546.1739021821359,548.2833685546693,1 45230U 20012BE  25291.24893788  .00001058  00000+0  89911-4 0  9992,2 45230  53.0556 286.0573 0001523  89.7344 270.3820 15.06394428313941
STARLINK-1246,45235,53.055,0.0001329,15.06401618,546.2862208414417,548.1269771700581,1 45235U 20012BK  25291.26365969 -.00002138  00000+0 -12470-3 0  9991,2 45235  53.0550 325.9918 0001329 103.6260 256.4878 15.06401618313390
STARLINK-1270,45237,53.0554,0.0001434,15.06395427,546.2324765670528,548.2186705531494,1 45237U 20012BM  25291.26735676 -.00000595  00000+0 -21055-4 0  9994,2 45237  53.0554 285.9771 0001434  90.7133 269.4021 15.06395427313934
STARLINK-1279,45360,53.054,0.0001326,15.21129171,501.5210663450407,503.3457936230716,1 45360U 20019A   25291.33336806  .01142587  00000+0  46696-1 0  9990,2 45360  53.0540  55.3209 0001326  98.1314 309.5869 15.21129171  5891
STARLINK-1301,45361,53.0548,0.0001238,15.2245884,497.5753414746432,499.27797863687283,1 45361U 20019B   25291.33336806  .01880620  00000+0  72769-1 0  9998,2 45361  53.0548  65.2348 0001238 104.9235  52.2707 15.22458840  5807
STARLINK-1306,45362,53.0474,0.0005814,15.64783083,369.9370690108399,377.78829424063315,1 45362U 20019C   25291.33336806  .00193356  00000+0  19080-2 0  9999,2 45362  53.0474  58.7090 0005814 219.2349 202.3367 15.64783083  6039
STARLINK-1262,45366,53.0541,0.0001217,15.06402483,546.361133917987,548.0467619047095,1 45366U 20019G   25290.84716385  .00001005  00000+0  86347-4 0  9993,2 45366  53.0541  87.8594 0001217  88.4522 271.6606 15.06402483308209
STARLINK-1273,45367,53.0536,0.0001273,15.0639908,546.3327803768389,548.0959748375781,1 45367U 20019H   25291.13466279  .00000544  00000+0  55440-4 0  9998,2 45367  53.0536  86.5714 0001273  83.8911 276.2223 15.06399080308245
STARLINK-1276,45368,53.0542,0.0001276,15.06393232,546.3486238383675,548.1159780839716,1 45368U 20019J   25291.17151913  .00002474  00000+0  18492-3 0  9998,2 45368  53.0542  86.4074 0001276  93.0655 267.0480 15.06393232308259
STARLINK-1277,45369,53.0537,0.0001267,15.06419266,546.2750768713531,548.0299452334539,1 45369U 20019K   25291.16420565  .00002851  00000+0  21012-3 0  9991,2 45369  53.0537  87.0667 0001267  90.1263 269.9871 15.06419266308242
